1 51106C 22005C   22300.46090278 -.00012041  00000+0 -75481-3 0  3008
2 51106  53.2175  47.3313 0002397  28.9436 256.3541 15.08860679    19
1 51106C 22005C   22300.79979167  .00003734  00000+0  23406-3 0  3004
2 51106  53.2173  45.8101 0002446  29.2166 297.8936 15.08849610    14
1 51106C 22005C   22301.12131944 -.00006213  00000+0 -38952-3 0  3015
2 51106  53.2172  44.3669 0002463  29.7198 244.8366 15.08853249    17
1 51106C 22005C   22301.46020833 -.00022887  00000+0 -14351-2 0  3017
2 51106  53.2171  42.8455 0002476  29.4383 286.9177 15.08861272    11
1 51106C 22005C   22301.78243056 -.00015550  00000+0 -97529-3 0  3014
2 51106  53.2169  41.3991 0002479  28.8789 238.7012 15.08844646    12
1 51106C 22005C   22302.12131944  .00024114  00000+0  15122-2 0  3028
2 51106  53.2169  39.8778 0002490  27.8003 281.5835 15.08812245    17
1 51106C 22005C   22302.45395833  .00012970  00000+0  81283-3 0  3022
2 51106  53.2169  38.3845 0002529  26.6548 290.5230 15.08843856    11
1 51106C 22005C   22302.77062500 -.00015549  00000+0 -97459-3 0  3028
2 51106  53.2169  36.9630 0002534  26.5834 211.6092 15.08869839    19
1 51106C 22005C   22303.11923611 -.00026362  00000+0 -16535-2 0  3037
2 51106  53.2170  35.3979 0002544  26.0275 306.8239 15.08854900    18
1 51106C 22005C   22303.44284722  .00017205  00000+0  10793-2 0  3030
2 51106  53.2170  33.9451 0002600  26.2230 265.3877 15.08806793    17
1 51106C 22005C   22303.77687500  .00005322  00000+0  33376-3 0  3037
2 51106  53.2172  32.4456 0002622  25.5704 281.3714 15.08827245    13
1 51106C 22005C   22304.13243056 -.00008045  00000+0 -50467-3 0  3040
2 51106  53.2174  30.8494 0002612  24.2829  55.0142 15.08829447    19
1 51106C 22005C   22304.45395833 -.00004746  00000+0 -29774-3 0  3047
2 51106  53.2175  29.4060 0002590  23.4441   3.2750 15.08823611    16
1 51106C 22005C   22304.78381944  .00008258  00000+0  51795-3 0  3049
2 51106  53.2176  27.9253 0002612  22.5392 356.8841 15.08820706    14
1 51106C 22005C   22305.12548611  .00025607  00000+0  16058-2 0  3054
2 51106  53.2178  26.3914 0002608  22.0724  54.2250 15.08810310    15
1 51106C 22005C   22305.46229167 -.00001822  00000+0 -11426-3 0  3053
2 51106  53.2179  24.8795 0002609  21.9997  84.7343 15.08840185    11
1 51106C 22005C   22305.76715278 -.00012817  00000+0 -80366-3 0  3054
2 51106  53.2179  23.5109 0002632  22.1439 301.4395 15.08850741    11
1 51106C 22005C   22306.14423611  .00010333  00000+0  64802-3 0  3061
2 51106  53.2180  21.8182 0002657  22.8656 190.0981 15.08821662    13
1 51106C 22005C   22306.48243056  .00004099  00000+0  25699-3 0  3064
2 51106  53.2180  20.3000 0002648  23.1761 227.7856 15.08834301    10
1 51106C 22005C   22306.82895833  .00009470  00000+0  59364-3 0  3062
2 51106  53.2180  18.7445 0002655  23.0720 311.1883 15.08839926    12
1 51106C 22005C   22307.14006944  .00014146  00000+0  88652-3 0  3074
2 51106  53.2179  17.3480 0002614  21.4677 203.6201 15.08845309    13
1 51106C 22005C   22307.46645833 -.00017335  00000+0 -10865-2 0  3070
2 51106  53.2179  15.8828 0002616  21.4927 177.4551 15.08871231    11
1 51106C 22005C   22307.83173611 -.00004201  00000+0 -26328-3 0  3071
2 51106  53.2177  14.2431 0002627  20.9587   3.2344 15.08864994    14
1 51106C 22005C   22308.13451389 -.00009700  00000+0 -60800-3 0  3089
2 51106  53.2176  12.8840 0002621  20.9493 208.7983 15.08863459    17
1 51106C 22005C   22308.48729167 -.00018494  00000+0 -11599-2 0  3089
2 51106  53.2174  11.3003 0002647  21.9819 325.0628 15.08850590    12
1 51106C 22005C   22308.80534722 -.00043147  00000+0 -27075-2 0  3085
2 51106  53.2173   9.8726 0002684  23.0852 252.5200 15.08854949    18
1 51106C 22005C   22309.15395833 -.00012043  00000+0 -75617-3 0  3090
2 51106  53.2172   8.3078 0002701  24.5463 345.6902 15.08799958    16
1 51106C 22005C   22309.47062500  .00029349  00000+0  18425-2 0  3095
2 51106  53.2171   6.8863 0002792  26.4297 264.7887 15.08764574    15
1 51106C 22005C   22309.86437500  .00011027  00000+0  69143-3 0  3092
2 51106  53.2174   5.1202 0002769  23.1813 247.8945 15.08826326    10
1 51106C 22005C   22310.13034722  .00002251  00000+0  14107-3 0  3104
2 51106  53.2170   3.9250 0002784  24.0249 252.5352 15.08847511    19
1 51106C 22005C   22310.53729167 -.00006444  00000+0 -40401-3 0  3108
2 51106  53.2171   2.0982 0002802  23.7990 304.4311 15.08850303    17
1 51106C 22005C   22310.85604167 -.00019341  00000+0 -12128-2 0  3109
2 51106  53.2171   0.6673 0002803  22.2122 238.3612 15.08856551    10
1 51106C 22005C   22311.19215278 -.00006492  00000+0 -40721-3 0  3113
2 51106  53.2171 359.1583 0002809  21.7632 265.5141 15.08834207    11
1 51106C 22005C   22311.51645833  .00010480  00000+0  65726-3 0  3115
2 51106  53.2172 357.7025 0002827  20.9471 228.8597 15.08818843    14
1 51106C 22005C   22311.85465278  .00016195  00000+0  10149-2 0  3112
2 51106  53.2173 356.1843 0002862  21.2069 266.5955 15.08843330    18
1 51106C 22005C   22312.19076389  .00026437  00000+0  16561-2 0  3126
2 51106  53.2173 354.6753 0002877  20.9331 293.5737 15.08847121    15
1 51106C 22005C   22312.53034722 -.00018047  00000+0 -11307-2 0  3122
2 51106  53.2174 353.1509 0002869  19.5341 340.5431 15.08886218    19
1 51106C 22005C   22312.85256944 -.00083786  00000+0 -52547-2 0  3122
2 51106  53.2174 351.7043 0002770  15.8174 295.5010 15.08914565    19
1 51106C 22005C   22313.18312500 -.00025566  00000+0 -16051-2 0  3133
2 51106  53.2174 350.2201 0002720  13.8945 293.9904 15.08819159    15
1 51106C 22005C   22313.52201389  .00033282  00000+0  20891-2 0  3132
2 51106  53.2174 348.6989 0002757  12.4220 337.2285 15.08766004    14
1 51106C 22005C   22313.85256944  .00021184  00000+0  13295-2 0  3133
2 51106  53.2174 347.2151 0002774  12.9416 333.1304 15.08786226    16
1 51106C 22005C   22314.19076389  .00142326  00000+0  89134-2 0  3142
2 51106  53.2176 345.6983 0002946  17.4854   6.4440 15.08740399    12
1 51106C 22005C   22314.51645833  .00018134  00000+0  11367-2 0  3146
2 51106  53.2172 344.2351 0003008  19.4383 334.5050 15.08831877    15
1 51106C 22005C   22314.86020833  .00018090  00000+0  11333-2 0  3145
2 51106  53.2171 342.6919 0003019  20.2243  41.9285 15.08850304    18
1 51106C 22005C   22315.15951389  .00002337  00000+0  14640-3 0  3150
2 51106  53.2169 341.3482 0003013  20.4021 228.4215 15.08869740    15
1 51106C 22005C   22315.49354167 -.00024864  00000+0 -15579-2 0  3150
2 51106  53.2168 339.8487 0002989  20.2730 243.9509 15.08890211    12
1 51106C 22005C   22315.82756944 -.00018531  00000+0 -11615-2 0  3157
2 51106  53.2167 338.3491 0002978  20.3734 259.2749 15.08871605    15
1 51106C 22005C   22316.15881944  .00001917  00000+0  12020-3 0  3164
2 51106  53.2165 336.8619 0002964  19.1677 260.7860 15.08844296    12
1 51106C 22005C   22316.49145833 -.00009199  00000+0 -57666-3 0  3168
2 51106  53.2164 335.3686 0002963  18.9015 268.8776 15.08857926    10
1 51106C 22005C   22316.83590278 -.00016901  00000+0 -10598-2 0  3164
2 51106  53.2164 333.8223 0002951  18.3881 341.3933 15.08853176    17
1 51106C 22005C   22317.15534722 -.00007296  00000+0 -45766-3 0  3176
2 51106  53.2164 332.3882 0002973  17.7285 278.1732 15.08831368    10
1 51106C 22005C   22317.50812500 -.00003277  00000+0 -20554-3 0  3171
2 51106  53.2164 330.8046 0002999  17.4501  35.7106 15.08826232    17
1 51106C 22005C   22317.82687500  .00010555  00000+0  66205-3 0  3174
2 51106  53.2165 329.3737 0003014  18.0152 327.4747 15.08816417    12
1 51106C 22005C   22318.16854167  .00010489  00000+0  65785-3 0  3186
2 51106  53.2166 327.8398 0003055  18.4022  23.9440 15.08819608    17
1 51106C 22005C   22318.48520833  .00011133  00000+0  69801-3 0  3181
2 51106  53.2167 326.4183 0003100  18.8157 304.5268 15.08829117    11
1 51106C 22005C   22318.83590278 -.00008208  00000+0 -51465-3 0  3188
2 51106  53.2169 324.8441 0003122  18.8442  50.4380 15.08845609    19
1 51106C 22005C   22319.15326389  .00007746  00000+0  48566-3 0  3197
2 51106  53.2169 323.4193 0003130  19.6108 334.4692 15.08830845    12
1 51106C 22005C   22319.50118056 -.00001029  00000+0 -64545-4 0  3192
2 51106  53.2171 321.8576 0003160  19.5723  65.3485 15.08839725    13
1 51106C 22005C   22320.17895833  .00009057  00000+0  56790-3 0  3203
2 51106  53.2172 318.8150 0003190  19.9978 148.5036 15.08828383    11
1 51106C 22005C   22320.49701389  .00000891  00000+0  55830-4 0  3202
2 51106  53.2173 317.3873 0003187  20.5585  76.4945 15.08844469    17
1 51106C 22005C   22320.84145833 -.00006840  00000+0 -42885-3 0  3204
2 51106  53.2173 315.8411 0003202  20.2878 148.7548 15.08847061    11
1 51106C 22005C   22321.19423611  .00010041  00000+0  62956-3 0  3214
2 51106  53.2172 314.2574 0003178  20.7004 265.6264 15.08829288    16
1 51106C 22005C   22321.51159722 -.00002815  00000+0 -17648-3 0  3219
2 51106  53.2171 312.8328 0003162  20.5943 190.5092 15.08846634    18
1 51106C 22005C   22321.86993056 -.00003363  00000+0 -21084-3 0  3211
2 51106  53.2170 311.2242 0003159  20.7427 337.8364 15.08844455    17
1 51106C 22005C   22322.22548611  .00009869  00000+0  61882-3 0  3221
2 51106  53.2168 309.6281 0003156  20.9619 109.9949 15.08828206    13
1 51106C 22005C   22322.55951389 -.00007979  00000+0 -50026-3 0  3227
2 51106  53.2166 308.1286 0003148  21.4814 124.8296 15.08850352    12
1 51106C 22005C   22322.89840278 -.00007246  00000+0 -45442-3 0  3221
2 51106  53.2169 306.6085 0003122  20.8322 167.2785 15.08840724    10
1 51106C 22005C   22323.22687500  .00014202  00000+0  89047-3 0  3234
2 51106  53.2162 305.1327 0003153  21.9082 151.3876 15.08824504    18
1 51106C 22005C   22323.55812500 -.00005171  00000+0 -32417-3 0  3236
2 51106  53.2160 303.6457 0003138  22.2824 151.2673 15.08848613    15
1 51106C 22005C   22323.89770833 -.00008074  00000+0 -50622-3 0  3238
2 51106  53.2158 302.1212 0003154  22.5280 196.5918 15.08847134    13
